GLOBALSTAR M075 [+]     
1 37192U 10054E   23268.05776487 -.00000067  00000+0  20245-3 0  9996
2 37192  51.9949 303.1912 0000370  65.0808 312.7352 12.62261632596674
GLOBALSTAR M073 [+]     
1 37193U 10054F   23268.24329006 -.00000107  00000+0 -17283-4 0  9994
2 37193  52.0050 215.9606 0000529  62.3512  79.0987 12.62267616598204
GLOBALSTAR M083 [+]     
1 37739U 11033A   23268.18119602 -.00000098  00000+0  33106-4 0  9990
2 37739  51.9850 165.7427 0000405  55.2634 105.1053 12.62269320567528
GLOBALSTAR M088 [+]     
1 37740U 11033B   23267.91658698 -.00000093  00000+0  58792-4 0  9998
2 37740  51.9732  72.5695 0000559  72.5938  84.2056 12.62265830562673
GLOBALSTAR M091 [+]     
1 37741U 11033C   23268.37442767 -.00000103  00000+0  49220-5 0  9997
2 37741  52.0020  33.6023 0000439  77.3565 300.2920 12.62266393563784
GLOBALSTAR M085 [+]     
1 37742U 11033D   23268.37393207 -.00000117  00000+0 -76431-4 0  9991
2 37742  51.9896 345.2027 0000286  91.3247 344.9804 12.62262820564523
GLOBALSTAR M081 [+]     
1 37743U 11033E   23267.70655006 -.00000125  00000+0 -12003-3 0  9999
2 37743  51.9988 349.6324 0000444  62.2791  99.6662 12.62264346564476
GLOBALSTAR M089 [+]     
1 37744U 11033F   23268.34714391 -.00000061  00000+0  23821-3 0  9992
2 37744  51.9931 302.0308 0000647  88.9495 284.8767 12.62267273565276
